STARLINK-1579           
1 46083U 20055BJ  24217.25648117  .00001052  00000+0  89478-4 0  9990
2 46083  53.0532 191.2500 0001382  93.1667 266.9480 15.06404579221512
STARLINK-1585           
1 46117U 20057A   24217.62233673  .00006785  00000+0  47386-3 0  9997
2 46117  53.0549  29.6183 0001182  78.7021 281.4101 15.06406597218611
STARLINK-1588           
1 46118U 20057B   24217.56521342  .00011161  00000+0  76641-3 0  9994
2 46118  53.0542  49.8726 0001459  97.7158 262.3997 15.06428171219604
STARLINK-1593           
1 46119U 20057C   24217.52101970  .00015386  00000+0  10496-2 0  9990
2 46119  53.0536  50.4208 0001183  89.5831 270.5293 15.06397833219578
STARLINK-1601           
1 46120U 20057D   24217.53941450  .00012584  00000+0  86177-3 0  9995
2 46120  53.0536  49.9908 0001074  88.5781 271.5331 15.06416944218985
STARLINK-1602           
1 46121U 20057E   24217.50807658  .00006086  00000+0  42691-3 0  9997
2 46121  53.0546  30.1284 0001396  86.6289 273.4859 15.06416654218596
STARLINK-1604           
1 46122U 20057F   24217.58362668  .00012720  00000+0  87090-3 0  9997
2 46122  53.0559   9.7912 0001133  87.2203 272.8915 15.06416578220148
STARLINK-1605           
1 46123U 20057G   24217.56888193  .00021107  00000+0  14306-2 0  9990
2 46123  53.0563   9.8604 0001341  94.5006 265.6136 15.06426721220164
STARLINK-1614           
1 46124U 20057H   24217.57625253  .00016756  00000+0  11403-2 0  9997
2 46124  53.0556   9.8236 0001286  87.2405 272.8731 15.06426271218896
STARLINK-1618           
1 46125U 20057J   24217.55783494  .00008464  00000+0  58629-3 0  9997
2 46125  53.0550  49.9066 0001357  79.3258 280.7884 15.06409576219587
STARLINK-1619           
1 46126U 20057K   24217.52832397  .00021692  00000+0  97773-3 0  9993
2 46126  53.0603  38.8642 0002186 128.1688 231.9504 15.20995651218480
STARLINK-1621           
1 46127U 20057L   24217.19108224  .00012453  00000+0  85357-3 0  9992
2 46127  53.0546  31.5549 0001276  80.4595 279.6538 15.06394465218542
STARLINK-1622           
1 46128U 20057M   24217.61680521  .00022350  00000+0  15139-2 0  9992
2 46128  53.0565   9.6473 0001443  74.2043 285.9105 15.06416413218897
STARLINK-1623           
1 46129U 20057N   24217.59100083  .00020781  00000+0  14085-2 0  9995
2 46129  53.0565   9.7574 0001123  76.6561 283.4553 15.06435920218891
STARLINK-1624           
1 46130U 20057P   24217.62417585  .00022905  00000+0  15508-2 0  9990
2 46130  53.0555   9.6101 0001155  72.4361 287.6754 15.06419153220144
STARLINK-1625           
1 46131U 20057Q   24217.50438484  .00012050  00000+0  82608-3 0  9995
2 46131  53.0557  30.1463 0001370  92.3181 267.7964 15.06416218219854
STARLINK-1630           
1 46132U 20057R   24217.27769912  .00001555  00000+0  12327-3 0  9992
2 46132  53.0550  51.1645 0001215  95.2587 264.8541 15.06401374219545
STARLINK-1637           
1 46133U 20057S   24217.60943249  .00015984  00000+0  10890-2 0  9990
2 46133  53.0563   9.6754 0001437  81.0161 279.0991 15.06417193220147
STARLINK-1639           
1 46135U 20057U   24217.62785556  .00021488  00000+0  14560-2 0  9993
2 46135  53.0551   9.5966 0000883  83.1680 276.9410 15.06427993218893
STARLINK-1643           
1 46136U 20057V   24217.21596482  .00000876  00000+0  77717-4 0  9990
2 46136  53.0559  41.4815 0001334  93.2776 266.8365 15.06398399218412
STARLINK-1586           
1 46137U 20057W   24217.62970840  .00011673  00000+0  80105-3 0  9991
2 46137  53.0541  29.5843 0001241  75.7395 284.3732 15.06409924218613
STARLINK-1590           
1 46138U 20057X   24217.53585442  .00120384  00000+0  51466-2 0  9999
2 46138  53.0589  39.2980 0003766 166.7954 193.3141 15.21918363218478
STARLINK-1594           
1 46140U 20057Z   24217.58731641  .00015453  00000+0  10538-2 0  9996
2 46140  53.0557   9.7747 0001343  71.5730 288.5405 15.06408691220152
STARLINK-1596           
1 46141U 20057AA  24217.63154052  .00007323  00000+0  50975-3 0  9995
2 46141  53.0561   9.5786 0001237  95.4276 264.6855 15.06419196218895
STARLINK-1597           
1 46142U 20057AB  24217.51728813  .00001010  00000+0  86662-4 0  9995
2 46142  53.0557  50.0906 0001276  96.8370 263.2764 15.06401505218977
STARLINK-1606           
1 46144U 20057AD  24217.21688194  .00008530  00000+0  59072-3 0  9999
2 46144  53.0546  31.4375 0001235  85.8342 274.2788 15.06409780206802
STARLINK-1608           
1 46146U 20057AF  24217.26296650  .00007133  00000+0  49709-3 0  9992
2 46146  53.0541  51.2313 0001342  87.6901 272.4241 15.06413601218287
STARLINK-1611           
1 46147U 20057AG  24217.24452546  .00004621  00000+0  32889-3 0  9999
2 46147  53.0552  51.3160 0001092  98.9471 261.1641 15.06400942219532
STARLINK-1616           
1 46148U 20057AH  24217.18371082  .00001908  00000+0  14691-3 0  9994
2 46148  53.0555  31.5885 0001436 110.1867 249.9276 15.06403292218547
STARLINK-1629           
1 46150U 20057AK  24217.52465845  .00004918  00000+0  34884-3 0  9996
2 46150  53.0539  50.0602 0001094  82.1655 277.9458 15.06400822218985
STARLINK-1631           
1 46151U 20057AL  24217.63339124  .00017988  00000+0  12228-2 0  9997
2 46151  53.0549  29.5663 0001322  99.6559 260.4579 15.06418059218617
STARLINK-1634           
1 46152U 20057AM  24217.66667824  .00251025  00000+0  15294-2 0  9990
2 46152  53.0508  25.6308 0005867 293.5499 127.7436 15.76162018  6027
STARLINK-1636           
1 46153U 20057AN  24217.51912405  .00011268  00000+0  77373-3 0  9993
2 46153  53.0562  30.0818 0000799 103.8885 256.2193 15.06418406219252
STARLINK-1642           
1 46154U 20057AP  24217.52926079  .00002481  00000+0  18537-3 0  9991
2 46154  53.0555  40.0346 0001357  99.1218 260.9925 15.06408438219114
STARLINK-1667           
1 46155U 20057AQ  24217.62048951  .00021563  00000+0  14616-2 0  9992
2 46155  53.0553   9.6295 0001227  77.0332 283.0793 15.06412720220137
STARLINK-1545           
1 46156U 20057AR  24217.21319714  .00012692  00000+0  86944-3 0  9993
2 46156  53.0543  31.4546 0001218  86.8477 273.2651 15.06400149219805
STARLINK-1587           
1 46157U 20057AS  24217.59838304  .00007349  00000+0  51166-3 0  9997
2 46157  53.0562   9.7262 0001165 105.4905 254.6213 15.06404888218894
STARLINK-1595           
1 46159U 20057AU  24217.56888931  .00013536  00000+0  92559-3 0  9993
2 46159  53.0540  49.8572 0001271  85.4835 274.6299 15.06410954219582
STARLINK-1598           
1 46160U 20057AV  24217.62602324  .00003032  00000+0  22236-3 0  9997
2 46160  53.0552  29.5994 0001382  95.7787 264.3359 15.06399981219863
STARLINK-1600           
1 46161U 20057AW  24217.47121015  .00002488  00000+0  18584-3 0  9999
2 46161  53.0547  30.2966 0001236  82.9029 277.2100 15.06403975219845
STARLINK-1603           
1 46162U 20057AX  24217.20951102  .00002395  00000+0  17960-3 0  9993
2 46162  53.0552  31.4747 0001362  87.1972 272.9172 15.06402198219225
STARLINK-1610           
1 46163U 20057AY  24217.60574035  .00016456  00000+0  11205-2 0  9992
2 46163  53.0569   9.6948 0001338 114.2667 245.8462 15.06419614218894
STARLINK-1612           
1 46164U 20057AZ  24217.60206205  .00020772  00000+0  14087-2 0  9991
2 46164  53.0551   9.7084 0001247  75.3436 284.7691 15.06414696220151
STARLINK-1626           
1 46167U 20057BC  24217.53571557  .00011307  00000+0  77654-3 0  9995
2 46167  53.0534  50.0069 0001286  85.7991 274.3145 15.06410780218326
STARLINK-1627           
1 46168U 20057BD  24217.58087792  .00020281  00000+0  13759-2 0  9990
2 46168  53.0565 359.8925 0001308  83.5040 276.6098 15.06415808219024
STARLINK-1628           
1 46169U 20057BE  24217.55050717  .00016844  00000+0  11466-2 0  9998
2 46169  53.0547  50.3270 0001279  95.1029 265.0106 15.06411495218269
STARLINK-1633           
1 46171U 20057BG  24217.51175287  .00005415  00000+0  38204-3 0  9999
2 46171  53.0546  30.1139 0000656  88.7478 271.3587 15.06409666219266
STARLINK-1635           
1 46172U 20057BH  24217.46015541  .00002186  00000+0  16561-3 0  9994
2 46172  53.0552  30.3480 0001221  83.3917 276.7211 15.06398163219849
STARLINK-1640           
1 46173U 20057BJ  24217.57257504  .00015077  00000+0  10285-2 0  9993
2 46173  53.0553  49.8416 0001248  99.7370 260.3760 15.06414881218324
STARLINK-1641           
1 46174U 20057BK  24217.24821532  .00010463  00000+0  72043-3 0  9991
2 46174  53.0550  51.2983 0001261  97.8601 262.2531 15.06391614218278
STARLINK-1734           
1 46325U 20062A   24217.59146390  .00003762  00000+0  27122-3 0  9997
2 46325  53.0549  64.7563 0001374  82.3857 277.7288 15.06412125217814
STARLINK-1654           
1 46326U 20062B   24217.12476972  .00030368  00000+0  20467-2 0  9995
2 46326  53.0541 112.0972 0001290  91.3713 268.7423 15.06439116216501
STARLINK-1673           
1 46327U 20062C   24217.12931295  .00054331  00000+0  32721-2 0  9992
2 46327  53.0545 110.9561 0003368  98.3337 261.8036 15.10293967216516
STARLINK-1686           
1 46328U 20062D   24216.92755525  .00024198  00000+0  16371-2 0  9991
2 46328  53.0541  92.7378 0001186  91.5434 268.5691 15.06416245216922
STARLINK-1695           
1 46329U 20062E   24217.35879867  .00006983  00000+0  48706-3 0  9996
2 46329  53.0526  90.8061 0001270  81.5246 278.5887 15.06410277216813
STARLINK-1710           
1 46330U 20062F   24217.34774590  .00003626  00000+0  26205-3 0  9995
2 46330  53.0528  90.8572 0001427  98.0578 262.0573 15.06416592216826
STARLINK-1719           
1 46331U 20062G   24217.11737854  .00027146  00000+0  18329-2 0  9993
2 46331  53.0542 111.8884 0001132  81.5745 278.5373 15.06428724216504
STARLINK-1721           
1 46332U 20062H   24217.66667824  .00046843  00000+0  74723-3 0  9999
2 46332  53.0297  35.1837 0005015 233.1133 182.1862 15.52764930  5870
STARLINK-1723           
1 46333U 20062J   24217.40857036  .00008964  00000+0  61977-3 0  9997
2 46333  53.0541 110.5813 0001444  80.6956 279.4196 15.06407348216549
